H1 CPF 01  gfz 2021 03 21 13  5802 terrasarx 
H2 0702601  6201 31698    2021 03 21 12 59 42 2021 03 26 00 00 42   120 1 1  0 0 0
H9
10 0 59297  69102.000000  0    1593960.022    413531.889  -6695617.064
10 0 59297  69222.000000  0    2421828.493     97095.286  -6455017.925
10 0 59297  69342.000000  0    3202056.907   -235094.496  -6101770.413
10 0 59297  69462.000000  0    3920869.910   -576324.543  -5641964.895
10 0 59297  69582.000000  0    4565647.438   -919484.009  -5083545.031
10 0 59297  69702.000000  0    5125150.360  -1257207.261  -4436183.200
10 0 59297  69822.000000  0    5589723.966  -1582026.970  -3711123.551
10 0 59297  69942.000000  0    5951474.453  -1886533.815  -2920995.606
10 0 59297  70062.000000  0    6204414.622  -2163540.038  -2079600.154
10 0 59297  70182.000000  0    6344574.336  -2406242.949  -1201670.274
10 0 59297  70302.000000  0    6370072.632  -2608383.850   -302612.203
10 0 59297  70422.000000  0    6281149.269  -2764398.926    601769.636
10 0 59297  70542.000000  0    6080154.152  -2869557.535   1495557.748
10 0 59297  70662.000000  0    5771493.708  -2920084.439   2363011.452
10 0 59297  70782.000000  0    5361534.625  -2913262.799   3188852.751
10 0 59297  70902.000000  0    4858468.787  -2847514.368   3958543.233
10 0 59297  71022.000000  0    4272143.199  -2722455.060   4658543.624
10 0 59297  71142.000000  0    3613861.185  -2538926.854   5276554.539
10 0 59297  71262.000000  0    2896155.214  -2299003.542   5801732.740
10 0 59297  71382.000000  0    2132540.781  -2005969.850   6224877.024
10 0 59297  71502.000000  0    1337256.606  -1664276.347   6538584.029
10 0 59297  71622.000000  0     524995.455  -1279470.643   6737371.854
10 0 59297  71742.000000  0    -289369.131   -858105.785   6817769.858
10 0 59297  71862.000000  0   -1091054.738   -407627.703   6778374.602
10 0 59297  71982.000000  0   -1865637.037     63756.103   6619872.567
10 0 59297  72102.000000  0   -2599308.169    547225.625   6345029.094
10 0 59297  72222.000000  0   -3279122.809   1033512.432   5958643.672
10 0 59297  72342.000000  0   -3893228.514   1513076.135   5467471.923
10 0 59297  72462.000000  0   -4431077.167   1976290.736   4880114.205
10 0 59297  72582.000000  0   -4883613.211   2413637.900   4206870.651
10 0 59297  72702.000000  0   -5243433.150   2815903.224   3459563.998
10 0 59297  72822.000000  0   -5504913.732   3174370.367   2651333.979
10 0 59297  72942.000000  0   -5664306.506   3481009.721   1796406.420
10 0 59297  73062.000000  0   -5719796.360   3728657.654    909839.066
10 0 59297  73182.000000  0   -5671519.616   3911179.538      7248.818
10 0 59297  73302.000000  0   -5521543.027   4023613.169   -895471.129
10 0 59297  73422.000000  0   -5273804.264   4062289.561  -1782440.134
10 0 59297  73542.000000  0   -4934013.940   4024927.330  -2638079.418
10 0 59297  73662.000000  0   -4509521.375   3910697.315  -3447392.368
10 0 59297  73782.000000  0   -4009149.831   3720257.015  -4196230.405
10 0 59297  73902.000000  0   -3443006.144   3455755.189  -4871538.651
10 0 59297  74022.000000  0   -2822269.742   3120806.697  -5461577.712
10 0 59297  74142.000000  0   -2158968.325   2720439.746  -5956118.971
10 0 59297  74262.000000  0   -1465741.774   2261016.191  -6346612.731
10 0 59297  74382.000000  0    -755600.375   1750126.064  -6626323.945
10 0 59297  74502.000000  0     -41683.472   1196460.806  -6790437.085
10 0 59297  74622.000000  0     662978.372    609665.991  -6836129.808
10 0 59297  74742.000000  0    1345695.415       176.691  -6762617.800
10 0 59297  74862.000000  0    1994342.926   -620964.579  -6571166.115
10 0 59297  74982.000000  0    2597570.973  -1242302.642  -6265069.132
10 0 59297  75102.000000  0    3145000.184  -1852175.595  -5849600.106
10 0 59297  75222.000000  0    3627399.420  -2438928.382  -5331930.335
10 0 59297  75342.000000  0    4036845.273  -2991134.133  -4721017.428
10 0 59297  75462.000000  0    4366856.387  -3497817.026  -4027459.723
10 0 59297  75582.000000  0    4612501.206  -3948671.070  -3263322.531
10 0 59297  75702.000000  0    4770478.942  -4334272.624  -2441936.546
10 0 59297  75822.000000  0    4839169.514  -4646280.904  -1577669.261
10 0 59297  75942.000000  0    4818650.961  -4877621.974   -685674.054
10 0 59297  76062.000000  0    4710681.793  -5022650.686    218379.616
10 0 59297  76182.000000  0    4518649.125  -5077285.186   1118588.070
10 0 59297  76302.000000  0    4247484.130  -5039110.905   1999102.220
10 0 59297  76422.000000  0    3903544.751  -4907450.295   2844415.345
10 0 59297  76542.000000  0    3494471.392  -4683398.321   3639643.724
10 0 59297  76662.000000  0    3029017.547  -4369821.204   4370795.057
10 0 59297  76782.000000  0    2516860.725  -3971318.936   5025017.882
10 0 59297  76902.000000  0    1968398.587  -3494153.422   5590827.646
10 0 59297  77022.000000  0    1394534.765  -2946144.194   6058306.427
10 0 59297  77142.000000  0     806459.218  -2336533.577   6419271.565
10 0 59297  77262.000000  0     215428.435  -1675826.252   6667412.420
10 0 59297  77382.000000  0    -367450.114   -975605.466   6798394.303
10 0 59297  77502.000000  0    -931425.554   -248328.068   6809930.098
10 0 59297  77622.000000  0   -1466300.949    492897.406   6701817.404
10 0 59297  77742.000000  0   -1962617.081   1234546.459   6475941.729
10 0 59297  77862.000000  0   -2411819.717   1962924.393   6136245.674
10 0 59297  77982.000000  0   -2806407.935   2664418.616   5688664.532
10 0 59297  78102.000000  0   -3140061.315   3325754.221   5141028.995
10 0 59297  78222.000000  0   -3407744.773   3934247.867   4502934.574
10 0 59297  78342.000000  0   -3605787.735   4478055.944   3785578.877
10 0 59297  78462.000000  0   -3731936.023   4946411.448   3001568.283
10 0 59297  78582.000000  0   -3785374.983   5329844.181   2164696.406
10 0 59297  78702.000000  0   -3766722.560   5620377.409   1289698.212
10 0 59297  78822.000000  0   -3677993.160   5811697.345    391986.348
10 0 59297  78942.000000  0   -3522533.851   5899292.838   -512627.444
10 0 59297  79062.000000  0   -3304931.958   5880558.117  -1408221.306
10 0 59297  79182.000000  0   -3030897.346   5754855.854  -2279054.045
10 0 59297  79302.000000  0   -2707120.458   5523538.769  -3109849.317
10 0 59297  79422.000000  0   -2341114.373   5189932.589  -3886066.699
10 0 59297  79542.000000  0   -1941043.907   4759279.766  -4594157.206
10 0 59297  79662.000000  0   -1515545.229   4238645.988  -5221795.142
10 0 59297  79782.000000  0   -1073542.209   3636795.274  -5758085.126
10 0 59297  79902.000000  0    -624061.558   2964034.361  -6193743.126
10 0 59297  80022.000000  0    -176050.819   2232029.002  -6521246.485
10 0 59297  80142.000000  0     261795.874   1453598.758  -6734951.620
10 0 59297  80262.000000  0     681201.614    642493.302  -6831182.143
10 0 59297  80382.000000  0    1074459.500   -186846.927  -6808285.459
10 0 59297  80502.000000  0    1434570.566  -1019543.174  -6666657.270
10 0 59297  80622.000000  0    1755364.790  -1840538.390  -6408734.120
10 0 59297  80742.000000  0    2031605.082  -2634862.137  -6038956.492
10 0 59297  80862.000000  0    2259072.545  -3387898.268  -5563701.786
10 0 59297  80982.000000  0    2434632.049  -4085653.950  -4991185.829
10 0 59297  81102.000000  0    2556275.825  -4715021.217  -4331329.907
10 0 59297  81222.000000  0    2623144.431  -5264026.037  -3595599.552
10 0 59297  81342.000000  0    2635524.569  -5722063.930  -2796815.174
10 0 59297  81462.000000  0    2594823.831  -6080114.483  -1948934.324
10 0 59297  81582.000000  0    2503522.576  -6330930.081  -1066810.349
10 0 59297  81702.000000  0    2365102.526  -6469192.720   -165929.090
10 0 59297  81822.000000  0    2183953.149  -6491632.143    737869.205
10 0 59297  81942.000000  0    1965259.718  -6397105.164   1628675.198
10 0 59297  82062.000000  0    1714874.898  -6186632.285   2490800.924
10 0 59297  82182.000000  0    1439175.985  -5863388.544   3309064.767
10 0 59297  82302.000000  0    1144913.636  -5432651.879   4069065.267
10 0 59297  82422.000000  0     839054.890  -4901709.868   4757438.189
10 0 59297  82542.000000  0     528624.625  -4279728.888   5362093.384
10 0 59297  82662.000000  0     220548.715  -3577585.854   5872426.667
10 0 59297  82782.000000  0     -78495.765  -2807667.649   6279501.471
10 0 59297  82902.000000  0    -362221.562  -1983645.373   6576198.101
10 0 59297  83022.000000  0    -624860.133  -1120228.365   6757331.749
10 0 59297  83142.000000  0    -861276.579   -232899.973   6819738.818
10 0 59297  83262.000000  0   -1067068.805    662361.159   6762329.314
10 0 59297  83382.000000  0   -1238648.987   1549368.637   6586104.382
10 0 59297  83502.000000  0   -1373305.835   2412020.154   6294139.832
10 0 59297  83622.000000  0   -1469247.557   3234589.678   5891535.977
10 0 59297  83742.000000  0   -1525624.707   4002015.589   5385333.444
10 0 59297  83862.000000  0   -1542531.675   4700179.925   4784396.658
10 0 59297  83982.000000  0   -1520988.208   5316175.075   4099264.580
10 0 59297  84102.000000  0   -1462899.654   5838550.640   3341969.476
10 0 59297  84222.000000  0   -1370998.574   6257535.269   2525827.917
10 0 59297  84342.000000  0   -1248768.203   6565229.942   1665205.249
10 0 59297  84462.000000  0   -1100346.672   6755765.480    775257.824
10 0 59297  84582.000000  0    -930417.142   6825419.942   -128340.193
10 0 59297  84702.000000  0    -744085.986   6772695.409  -1029680.976
10 0 59297  84822.000000  0    -546751.515   6598348.355  -1912914.368
10 0 59297  84942.000000  0    -343967.905   6305371.453  -2762535.234
10 0 59297  85062.000000  0    -141308.260   5898932.022  -3563659.755
10 0 59297  85182.000000  0      55770.853   5386269.850  -4302287.615
10 0 59297  85302.000000  0     242060.246   4776556.081  -4965545.281
10 0 59297  85422.000000  0     412721.065   4080717.255  -5541905.257
10 0 59297  85542.000000  0     563397.057   3311229.083  -6021378.602
99
